[{"OBJECT_NAME":"STARLINK-36436","OBJECT_ID":"2026-020K","EPOCH":"2026-03-09T22:00:01.999584","MEAN_MOTION":15.65209547,"ECCENTRICITY":0.00014141,"INCLINATION":42.9994,"RA_OF_ASC_NODE":140.5105,"ARG_OF_PERICENTER":279.0683,"MEAN_ANOMALY":134.0837,"EPHEMERIS_TYPE":0,"CLASSIFICATION_TYPE":"U","NORAD_CAT_ID":67626,"ELEMENT_SET_NO":999,"REV_AT_EPOCH":603,"BSTAR":-0.021856174,"MEAN_MOTION_DOT":-0.01963548,"MEAN_MOTION_DDOT":0},{"OBJECT_NAME":"OBJECT Q","OBJECT_ID":"2018-099Q","EPOCH":"2026-03-09T10:49:11.167680","MEAN_MOTION":15.57553026,"ECCENTRICITY":0.00029382,"INCLINATION":97.4297,"RA_OF_ASC_NODE":143.8326,"ARG_OF_PERICENTER":208.2257,"MEAN_ANOMALY":151.8839,"EPHEMERIS_TYPE":0,"CLASSIFICATION_TYPE":"U","NORAD_CAT_ID":43772,"ELEMENT_SET_NO":999,"REV_AT_EPOCH":39901,"BSTAR":0.0013586873,"MEAN_MOTION_DOT":0.00101095,"MEAN_MOTION_DDOT":0}]
